{
  "type": "FeatureCollection",
  "features": [
    {
      "type": "Feature",
      "properties": {
        "norad_id": 31342,
        "name": "FENGYUN 1C DEB",
        "group": "fengyun-1c-debris",
        "lat": -81.05036836032667,
        "lon": 26.605784357722705,
        "alt_km": 703.6110885295211,
        "timestamp": "2025-12-03T19:33:07.257902+00:00",
        "meta_object_name": "FENGYUN 1C DEB",
        "meta_object_id": "1999-025BQW",
        "meta_epoch": "2025-11-29T02:18:53.046720",
        "meta_mean_motion": 14.36748173,
        "meta_eccentricity": 0.01111347,
        "meta_inclination": 98.9329,
        "meta_ra_of_asc_node": 288.8418,
        "meta_arg_of_pericenter": 259.8555,
        "meta_mean_anomaly": 99.0079,
        "meta_ephemeris_type": 0,
        "meta_classification_type": "U",
        "meta_norad_cat_id": 31342,
        "meta_element_set_no": 999,
        "meta_rev_at_epoch": 97695,
        "meta_bstar": 0.00017184307,
        "meta_mean_motion_dot": 4.93e-06,
        "meta_mean_motion_ddot": 0,
        "tle_line1": "1 31342U 99025BQW 25333.09644730  .00000493  00000+0  17184-3 0  9996",
        "tle_line2": "2 31342  98.9329 288.8418 0111134 259.8555  99.0079 14.36748173976958"
      },
      "geometry": {
        "type": "Point",
        "coordinates": [
          26.605784357722705,
          -81.05036836032667
        ]
      }
    },
    {
      "type": "Feature",
      "properties": {
        "norad_id": 31346,
        "name": "FENGYUN 1C DEB",
        "group": "fengyun-1c-debris",
        "lat": -58.35659827643946,
        "lon": 108.70621781606914,
        "alt_km": 617.7783804959381,
        "timestamp": "2025-12-03T19:33:07.257913+00:00",
        "meta_object_name": "FENGYUN 1C DEB",
        "meta_object_id": "1999-025BRA",
        "meta_epoch": "2025-12-03T08:57:26.430912",
        "meta_mean_motion": 15.10291128,
        "meta_eccentricity": 0.0112902,
        "meta_inclination": 98.8642,
        "meta_ra_of_asc_node": 302.8655,
        "meta_arg_of_pericenter": 46.217,
        "meta_mean_anomaly": 314.8328,
        "meta_ephemeris_type": 0,
        "meta_classification_type": "U",
        "meta_norad_cat_id": 31346,
        "meta_element_set_no": 999,
        "meta_rev_at_epoch": 99354,
        "meta_bstar": 0.001448,
        "meta_mean_motion_dot": 0.00027606,
        "meta_mean_motion_ddot": 0,
        "tle_line1": "1 31346U 99025BRA 25337.37322258  .00027606  00000+0  14480-2 0  9993",
        "tle_line2": "2 31346  98.8642 302.8655 0112902  46.2170 314.8328 15.10291128993549"
      },
      "geometry": {
        "type": "Point",
        "coordinates": [
          108.70621781606914,
          -58.35659827643946
        ]
      }
    },
    {
      "type": "Feature",
      "properties": {
        "norad_id": 31348,
        "name": "FENGYUN 1C DEB",
        "group": "fengyun-1c-debris",
        "lat": -20.20515035091085,
        "lon": 104.92386532649185,
        "alt_km": 792.0662278633981,
        "timestamp": "2025-12-03T19:33:07.257922+00:00",
        "meta_object_name": "FENGYUN 1C DEB",
        "meta_object_id": "1999-025BRC",
        "meta_epoch": "2025-12-02T08:09:36.502848",
        "meta_mean_motion": 14.33921612,
        "meta_eccentricity": 0.00348741,
        "meta_inclination": 99.1182,
        "meta_ra_of_asc_node": 286.7588,
        "meta_arg_of_pericenter": 95.0005,
        "meta_mean_anomaly": 56.8667,
        "meta_ephemeris_type": 0,
        "meta_classification_type": "U",
        "meta_norad_cat_id": 31348,
        "meta_element_set_no": 999,
        "meta_rev_at_epoch": 96100,
        "meta_bstar": 0.0014908985,
        "meta_mean_motion_dot": 4.138e-05,
        "meta_mean_motion_ddot": 0,
        "tle_line1": "1 31348U 99025BRC 25336.34000582  .00004138  00000+0  14909-2 0  9995",
        "tle_line2": "2 31348  99.1182 286.7588 0034874  95.0005  56.8667 14.33921612961006"
      },
      "geometry": {
        "type": "Point",
        "coordinates": [
          104.92386532649185,
          -20.20515035091085
        ]
      }
    },
    {
      "type": "Feature",
      "properties": {
        "norad_id": 31350,
        "name": "FENGYUN 1C DEB",
        "group": "fengyun-1c-debris",
        "lat": 71.92692647008667,
        "lon": 120.58299613768827,
        "alt_km": 757.6990006835777,
        "timestamp": "2025-12-03T19:33:07.257933+00:00",
        "meta_object_name": "FENGYUN 1C DEB",
        "meta_object_id": "1999-025BRE",
        "meta_epoch": "2025-11-30T17:33:48.876480",
        "meta_mean_motion": 14.34783112,
        "meta_eccentricity": 0.00667285,
        "meta_inclination": 98.9598,
        "meta_ra_of_asc_node": 146.2979,
        "meta_arg_of_pericenter": 160.2382,
        "meta_mean_anomaly": 200.141,
        "meta_ephemeris_type": 0,
        "meta_classification_type": "U",
        "meta_norad_cat_id": 31350,
        "meta_element_set_no": 999,
        "meta_rev_at_epoch": 70081,
        "meta_bstar": 0.00062280408,
        "meta_mean_motion_dot": 1.764e-05,
        "meta_mean_motion_ddot": 0,
        "tle_line1": "1 31350U 99025BRE 25334.73181570  .00001764  00000+0  62280-3 0  9994",
        "tle_line2": "2 31350  98.9598 146.2979 0066728 160.2382 200.1410 14.34783112700819"
      },
      "geometry": {
        "type": "Point",
        "coordinates": [
          120.58299613768827,
          71.92692647008667
        ]
      }
    },
    {
      "type": "Feature",
      "properties": {
        "norad_id": 31351,
        "name": "FENGYUN 1C DEB",
        "group": "fengyun-1c-debris",
        "lat": 59.88847002665815,
        "lon": 160.31775523310918,
        "alt_km": 813.7964225502801,
        "timestamp": "2025-12-03T19:33:07.257942+00:00",
        "meta_object_name": "FENGYUN 1C DEB",
        "meta_object_id": "1999-025BRF",
        "meta_epoch": "2025-12-03T10:27:48.291840",
        "meta_mean_motion": 14.06918147,
        "meta_eccentricity": 0.0093812,
        "meta_inclination": 98.7941,
        "meta_ra_of_asc_node": 324.4684,
        "meta_arg_of_pericenter": 77.2501,
        "meta_mean_anomaly": 283.9133,
        "meta_ephemeris_type": 0,
        "meta_classification_type": "U",
        "meta_norad_cat_id": 31351,
        "meta_element_set_no": 999,
        "meta_rev_at_epoch": 61244,
        "meta_bstar": 0.00036238,
        "meta_mean_motion_dot": 5.87e-06,
        "meta_mean_motion_ddot": 0,
        "tle_line1": "1 31351U 99025BRF 25337.43597560  .00000587  00000+0  36238-3 0  9991",
        "tle_line2": "2 31351  98.7941 324.4684 0093812  77.2501 283.9133 14.06918147612446"
      },
      "geometry": {
        "type": "Point",
        "coordinates": [
          160.31775523310918,
          59.88847002665815
        ]
      }
    },
    {
      "type": "Feature",
      "properties": {
        "norad_id": 31353,
        "name": "FENGYUN 1C DEB",
        "group": "fengyun-1c-debris",
        "lat": -44.35365715859828,
        "lon": -88.28940852679276,
        "alt_km": 918.8062951849552,
        "timestamp": "2025-12-03T19:33:07.257952+00:00",
        "meta_object_name": "FENGYUN 1C DEB",
        "meta_object_id": "1999-025BRH",
        "meta_epoch": "2025-11-28T00:21:57.879936",
        "meta_mean_motion": 14.29784822,
        "meta_eccentricity": 0.02273016,
        "meta_inclination": 98.9934,
        "meta_ra_of_asc_node": 256.8108,
        "meta_arg_of_pericenter": 110.0293,
        "meta_mean_anomaly": 252.5515,
        "meta_ephemeris_type": 0,
        "meta_classification_type": "U",
        "meta_norad_cat_id": 31353,
        "meta_element_set_no": 999,
        "meta_rev_at_epoch": 96374,
        "meta_bstar": 0.00040911928,
        "meta_mean_motion_dot": 1.339e-05,
        "meta_mean_motion_ddot": 0,
        "tle_line1": "1 31353U 99025BRH 25332.01525324  .00001339  00000+0  40912-3 0  9991",
        "tle_line2": "2 31353  98.9934 256.8108 0227301 110.0293 252.5515 14.29784822963741"
      },
      "geometry": {
        "type": "Point",
        "coordinates": [
          -88.28940852679276,
          -44.35365715859828
        ]
      }
    },
    {
      "type": "Feature",
      "properties": {
        "norad_id": 31357,
        "name": "FENGYUN 1C DEB",
        "group": "fengyun-1c-debris",
        "lat": -51.661366256836,
        "lon": 178.0291365016869,
        "alt_km": 835.015173721953,
        "timestamp": "2025-12-03T19:33:07.257962+00:00",
        "meta_object_name": "FENGYUN 1C DEB",
        "meta_object_id": "1999-025BRM",
        "meta_epoch": "2025-11-30T00:52:28.172352",
        "meta_mean_motion": 14.18522875,
        "meta_eccentricity": 0.00493295,
        "meta_inclination": 98.613,
        "meta_ra_of_asc_node": 5.4099,
        "meta_arg_of_pericenter": 329.9646,
        "meta_mean_anomaly": 59.6806,
        "meta_ephemeris_type": 0,
        "meta_classification_type": "U",
        "meta_norad_cat_id": 31357,
        "meta_element_set_no": 999,
        "meta_rev_at_epoch": 96524,
        "meta_bstar": 4.375307e-05,
        "meta_mean_motion_dot": 4.9e-07,
        "meta_mean_motion_ddot": 0,
        "tle_line1": "1 31357U 99025BRM 25334.03643718  .00000049  00000+0  43753-4 0  9991",
        "tle_line2": "2 31357  98.6130   5.4099 0049329 329.9646  59.6806 14.18522875965244"
      },
      "geometry": {
        "type": "Point",
        "coordinates": [
          178.0291365016869,
          -51.661366256836
        ]
      }
    }
  ]
}